{"type": "FeatureCollection", "features": [{"type": "Feature", "properties": {"name": "India"}, "geometry": {"type": "MultiPolygon", "coordinates": [[[[77.51873419405028, 35.48565732389375], [77.91099100100007, 35.46209900100007], [78.855859, 35.974243], [79.343439, 35.987873], [79.572129, 35.89653], [79.704278, 35.639045], [79.99895, 35.602417], [80.054915, 35.423414], [80.205413, 35.575150001000054], [80.411595, 35.477111], [80.074146, 34.70580600100004], [79.786547, 34.62735400100007], [79.794322, 34.480063], [79.508851, 34.453679], [79.607364, 34.238222], [79.403281, 34.00233], [78.887176, 33.97258700100008], [79.090382, 33.637189], [78.907397, 33.62049], [78.94011100100005, 33.380019], [79.107388, 33.19975], [79.408298, 33.188838], [79.331457, 33.000793], [79.548375, 32.676552], [78.968287, 32.33574], [78.779367, 32.47901600100005], [78.73958861600005, 32.69571814500006], [78.395036, 32.52987400100005], [78.779628, 31.993593], [78.778182, 31.312339], [79.099114, 31.454677], [79.427466, 31.022924001000035], [79.866039, 30.971783], [80.238638, 30.762319], [80.21834500100005, 30.58015], [81.03086, 30.247088001000066], [80.36574144000008, 29.747885964000034], [80.40794146800005, 29.595506146000048], [80.24290889100007, 29.443909268000027], [80.29723532600008, 29.205230762000042], [80.14483035500007, 29.10428895600006], [80.07521678000006, 28.824454545000037], [80.51704941700007, 28.55183950000003], [80.56854935200005, 28.68804499600003], [81.21059096100004, 28.360782764000078], [81.31794719400006, 28.133663459000047], [81.44658543300005, 28.161052978000043], [81.88492524100008, 27.856965091000063], [82.07002449300006, 27.92367366800005], [82.44871346200006, 27.679329058000064], [82.70790201800008, 27.722829140000044], [82.73557302200004, 27.502320116000078], [83.18789854500005, 27.45438975600007], [83.31725852600005, 27.330045768000048], [83.38813376800005, 27.479801416000043], [83.86373317700009, 27.345854425000027], [83.84743525700009, 27.445351754000058], [84.15071261700007, 27.51692663400007], [84.62000823300008, 27.338758593000023], [84.64330299000005, 27.046176426000045], [85.19065592600003, 26.86997931700006], [85.21148764600008, 26.758273405000068], [85.62696668200005, 26.873467138000024], [85.85159826600005, 26.56802974200008], [86.33311697600004, 26.61910596900003], [86.73055498900004, 26.42264711200005], [87.07156674700008, 26.58583126800005], [87.09147501300004, 26.450375503000032], [87.34062448100008, 26.347374245000026], [87.88808114400007, 26.48688320800005], [88.00842245600006, 26.36126273800005], [88.18627205800004, 26.73849049100005], [87.98727764700004, 27.119423088000076], [88.19701746800007, 27.79104337600006], [88.117999, 27.91806800100005], [88.63725597800004, 28.11823462700005], [88.888121, 27.856407001000036], [88.763302, 27.566424], [88.91467092000005, 27.29074896000003], [88.74555333400008, 27.141983681000056], [89.13363346900007, 26.80747167800007], [89.37893863900007, 26.862298718000034], [89.86094973300004, 26.702020985000047], [90.35550192800008, 26.90084841500004], [90.71723202200008, 26.769856059000062], [91.68973216000006, 26.806690139000068], [91.89239792300003, 26.92055232000007], [92.05643146600005, 26.847273689000076], [92.03769288000007, 27.25848504000004], [92.12328396000004, 27.286608960000024], [92.01666420200007, 27.480615111000077], [91.65199400300008, 27.48330172900006], [91.56233196000005, 27.631447020000053], [91.64299604700005, 27.761111], [91.92439506600005, 27.716514477000032], [92.24365691800006, 27.88816751400003], [92.455818, 27.79333500100006], [92.72957400100006, 27.978233001000035], [92.67733, 28.150960001000044], [92.921611, 28.200690001000055], [93.42563159700006, 28.661985712000046], [93.712243, 28.664707001000068], [94.260509, 28.931677], [94.366375, 29.025931], [94.293217, 29.15231200100004], [94.626468, 29.295798], [95.262616, 29.06834], [96.053699, 29.382748], [96.30280976100005, 29.192280071000027], [96.18681774100008, 29.03730968900004], [96.33020086900007, 29.113145902000042], [96.63180951800007, 28.73370733300004], [96.40645336900008, 28.505854386000067], [96.49810578900008, 28.42899383200006], [96.49314397700005, 28.541797246000044], [96.71188336700004, 28.611443849000068], [96.92512187800008, 28.35261858100006], [97.36007440300006, 28.20480506800004], [97.39535870500004, 28.01174180000004], [97.36619998800006, 27.87723783900003], [96.88981200500007, 27.605873904000077], [97.13821021200005, 27.091486874000054], [96.70421722000003, 27.372258742000042], [96.22858935200009, 27.27880082200005], [95.14910719700003, 26.616014375000077], [95.06174856200005, 26.44951591800003], [95.18568340300004, 26.073299559000077], [94.89823108200005, 25.565570274000038], [94.63474079500008, 25.395189526000024], [94.57563994500003, 25.213862879000033], [94.74094483300007, 25.12657570400006], [94.71360261100006, 24.935002558000065], [94.15658726800007, 23.847907993000035], [93.75430185200008, 24.005539799000076], [93.50511773500006, 23.94249383500005], [93.32846535900006, 24.081022520000033], [93.43768739600006, 23.68680691800006], [93.38530227900009, 23.134666222000078], [93.29362002300007, 23.006661672000064], [93.12650077500007, 23.044013930000062], [93.20204103400005, 22.26413440600004], [92.90620677000004, 21.94142130800003], [92.69954201400003, 22.155041426000025], [92.67963540400007, 22.011523013000044], [92.60254291500007, 21.97812090900004], [92.27997442200007, 23.71938024800005], [92.04709199600006, 23.64578414600004], [91.95703390200003, 23.734121667000068], [91.97026695700004, 23.478289090000033], [91.76200484200007, 23.300122160000058], [91.83565923100008, 23.092363774000034], [91.61858158800004, 22.937311046000048], [91.41151586900008, 23.284141969000075], [91.34695723700008, 23.102435425000067], [91.15964018800008, 23.61058891400006], [91.37448333500004, 24.10754047200004], [91.58611486900008, 24.07272385300007], [91.66587, 24.233536], [91.76256404300005, 24.141801557000065], [91.74477299600005, 24.247415879000073], [91.90157744200008, 24.136646037000048], [91.91990751800006, 24.33708581600007], [92.16396380000003, 24.418627160000028], [92.29640370200008, 24.73665300500005], [92.23179514400005, 24.900259246000076], [92.49797999300006, 24.876450844000033], [92.42544509900006, 25.03030276100003], [92.06169323600005, 25.18784878100007], [90.44093790600004, 25.144644119000077], [89.83831201100008, 25.293235523000078], [89.88694158400006, 25.945342663000076], [89.67925021200006, 26.23830765400004], [89.57743572400005, 25.96909953200003], [89.35639535500007, 26.007682971000065], [89.15532718700007, 26.138323627000034], [89.08737670600004, 26.39772767200003], [88.90465913400004, 26.408623376000037], [89.05069676000005, 26.241748631000064], [88.66617335700005, 26.262827625000057], [88.74541889800008, 26.347919586000046], [88.39946918700008, 26.626634627000044], [88.33159218200007, 26.481949627000063], [88.52421833900007, 26.359436569000025], [88.17701260900003, 26.147980919000076], [88.10692301400007, 25.81512550900004], [88.26942121200005, 25.808334443000035], [88.53989558000006, 25.508401583000023], [88.81046735600006, 25.523295449000045], [89.00840368700005, 25.264385059000062], [88.92303214100008, 25.16511072800006], [88.44171511000008, 25.21049722300006], [88.39898723200008, 24.945242002000043], [88.13789451100007, 24.93630703100007], [88.00861437300006, 24.66781802500003], [88.33388901200004, 24.381516876000035], [88.73540308600008, 24.27907464200007], [88.76944418000005, 23.98206857400004], [88.57548031900006, 23.861822158000052], [88.55827060800004, 23.649230768000052], [88.80079316600006, 23.497288345000072], [88.71875613000003, 23.255148691000045], [88.99582104300003, 23.215008691000037], [88.84490326900004, 23.009240583000064], [89.09803221900006, 22.15508961300003], [88.98574829100005, 21.895555496000043], [89.09955596900005, 21.637332917000037], [88.91999816900005, 21.63036155800006], [88.85997009300007, 21.777055740000037], [88.84913635300006, 21.61619377100004], [88.72250366200007, 21.67788887100005], [88.77864074700005, 22.014055253000038], [88.63905334500004, 22.076194764000036], [88.55496978800005, 21.815361024000026], [88.51830291700009, 21.947916031000034], [88.45788574200003, 21.895805359000065], [88.45085907000004, 21.612054826000076], [88.42958068800004, 21.606695176000073], [88.44041442900004, 21.623332977000075], [88.42038726800007, 21.65327835200003], [88.43455505400004, 21.701639175000025], [88.42416381800007, 21.71875], [88.39661407500006, 21.591249466000022], [88.40208435000005, 21.71997261200005], [88.27494812000003, 21.733722687000068], [88.24663543700007, 21.561222076000035], [88.20866394000006, 22.149110794000023], [88.18077850300006, 22.191194534000033], [88.01955413800005, 22.222917557000073], [88.19033050700006, 22.104110717000026], [88.04827881000006, 22.014499664000027], [87.80416870100004, 21.69622230500005], [87.09247589100005, 21.53705596900005], [86.91210937500006, 21.33833313100007], [86.82707977300004, 21.136638641000047], [86.97455596900005, 20.82077789300007], [86.86761474600007, 20.775222778000057], [87.06958007800006, 20.720806121000066], [86.73163604700005, 20.534610748000034], [86.78788757300003, 20.37663841400007], [86.67377471900005, 20.294137955000053], [86.79875183100006, 20.346666336000055], [86.37163543700007, 19.95208358900004], [85.54000091600005, 19.69622230500005], [85.03794097900004, 19.391666412000063], [84.12916564900007, 18.309555053000054], [83.55625152600004, 18.025806428000067], [83.21494293200004, 17.590389252000023], [82.30619812100008, 17.038333893000072], [82.30455780000005, 16.55994415300006], [81.70996856700003, 16.30541610800003], [81.26747131300004, 16.292888641000047], [80.93830871600005, 15.710389138000039], [80.67749786400003, 15.889555931000075], [80.26419067400008, 15.672082902000056], [80.04792022700008, 15.074138642000037], [80.19580841100003, 14.577944755000033], [80.12622070300006, 14.065833092000048], [80.34622192300003, 13.283305169000073], [80.15625, 12.462444305000076], [79.75875091500006, 11.671610832000056], [79.88122558600008, 10.310832977000075], [79.29413604700005, 10.26038932800003], [78.90039062500006, 9.486666679000052], [78.95919799800004, 9.340416908000066], [79.18914031900005, 9.280388833000075], [78.26583099400005, 9.017916681000031], [78.06999969400005, 8.373722076000035], [77.55000305200008, 8.073694230000058], [77.01247406000005, 8.350388527000064], [76.54619598400006, 8.899999618000038], [76.66625213600008, 8.99416637400003], [76.53871917900005, 8.934139253000069], [76.35708618100006, 9.364972114000068], [76.27041626000005, 10.032500267000046], [75.86955261300005, 11.124111175000053], [75.54291534400005, 11.710778236000067], [75.20124816900005, 12.004111291000072], [74.82538604700005, 12.83833313100007], [74.72205352800006, 13.63833332200005], [74.42710876400008, 14.277500153000062], [74.51708221400008, 14.24163913700005], [74.28372192400008, 14.712499618000038], [73.91291809100005, 15.083277702000032], [73.78958129800003, 15.652444841000033], [73.45705413800005, 16.05330467300007], [73.36708068900003, 16.379167557000073], [73.46875, 16.413305282000067], [73.36997223000003, 16.39455604500006], [73.31708526600005, 16.51080513000005], [73.44374847400007, 16.499971389000052], [73.31874847400007, 16.598333359000037], [73.40211486800007, 16.615804672000024], [73.32541656500007, 17.040000917000043], [73.19122314400005, 17.29663848900003], [73.26164245600006, 17.257917404000068], [73.29955291800007, 17.29163932800003], [72.93291473400006, 18.217472076000035], [73.10208129900008, 18.142444612000077], [73.08621978800005, 18.31916618500003], [72.92121887200005, 18.34749984700005], [72.90705871600005, 18.539943695000034], [73.00624847400007, 18.466667175000055], [72.85708618100006, 18.69416618500003], [72.93916320800008, 18.825387954000064], [72.99705505400004, 18.778305055000033], [72.98039245600006, 18.752471925000066], [73.0, 18.722917556000027], [73.01625061100003, 18.71500015400005], [72.98916626000005, 18.865417480000076], [72.90875244100005, 18.897443773000077], [73.06705474800003, 19.020805359000065], [72.98580932600004, 19.18952751100005], [72.95791626000005, 19.037445068000068], [72.80622100800008, 18.893333435000045], [72.78624725400005, 19.304971695000063], [72.91210937500006, 19.288333893000072], [72.74455261300005, 19.45994377100004], [72.88877868700007, 19.52413940400004], [72.73039245600006, 19.529167177000033], [72.65544128400006, 19.833305360000054], [72.93041992200006, 20.75913810800006], [72.73371887200005, 20.998277665000046], [72.84872436500007, 21.03247261000007], [72.70703125000006, 21.087499620000074], [72.78869628900003, 21.18000030500008], [72.63999938900008, 21.080389023000066], [72.63786315900006, 21.206611633000023], [72.66249847400007, 21.226222992000032], [72.69494628900003, 21.192888260000075], [72.74166870100004, 21.19788932800003], [72.59786224400005, 21.29830551200007], [72.92788696300005, 21.675777435000043], [72.53666687000003, 21.66286087000003], [72.74958038300008, 21.973278047000065], [72.50788879500004, 21.975805284000046], [72.58583068800004, 22.204555511000024], [72.76080322200005, 22.17374992300006], [72.91205596900005, 22.264972687000068], [72.53500366200007, 22.305389405000028], [72.43080902100007, 22.204526901000065], [72.32622528100006, 22.308305741000027], [72.18202972400007, 22.02249908400006], [72.24705505400004, 21.924165725000023], [72.23166656500007, 21.944555283000057], [72.21166992200006, 21.953722], [72.16330719000007, 21.959554672000024], [72.30625152600004, 21.62666702300004], [72.11127471900005, 21.199111938000044], [70.82205200200008, 20.69083404500003], [70.15577697800006, 21.054555893000042], [68.93538665800008, 22.306694030000074], [69.06833648600008, 22.478721620000044], [69.22747039800004, 22.25622177100007], [69.51000213600008, 22.425388337000072], [69.66789245600006, 22.323333740000066], [69.72836303700007, 22.47455597000004], [69.80833435000005, 22.397888183000077], [70.17416382000005, 22.542028427000048], [70.44750213600008, 22.970388412000034], [70.21913909900007, 23.05541610800003], [70.22413635200007, 22.95288848900003], [69.88497161900005, 22.91286087000003], [69.71083068800004, 22.737888337000072], [69.19580841000004, 22.836221695000063], [69.07583618100006, 22.95208358800005], [69.06416320800008, 22.91538810700007], [69.01419067400008, 22.982915879000075], [68.99083709700005, 22.953722], [68.98247528100006, 22.992027283000027], [68.96247100800008, 22.967889785000068], [68.75655365100005, 23.08036041300005], [68.63158416700003, 23.16866684100006], [68.71741485700005, 23.12536048800007], [68.57947540300006, 23.227443695000034], [68.67947387700008, 23.301639557000044], [68.42539215100004, 23.509166718000074], [68.81080627500006, 23.87880516000007], [68.51408386200006, 23.745445252000025], [68.42678070100004, 23.819360734000043], [68.34997558600003, 23.58205604500006], [68.17202758800005, 23.616666793000036], [68.34955596900005, 23.730028152000045], [68.18958282500006, 23.72669410700007], [68.35697642600007, 23.974152712000034], [68.75299125300006, 23.971423774000073], [68.80801, 24.313490001000048], [68.86602251800008, 24.21220308900007], [68.94538, 24.302530001000036], [69.59429, 24.29238], [70.02502, 24.171030001000076], [70.56134, 24.42085], [70.57134000100007, 24.25175], [70.714, 24.215710001000048], [71.11965, 24.40245], [70.9985, 24.44437], [71.09618, 24.68863], [70.66482306000006, 25.39689362200005], [70.66014987200003, 25.702020599000036], [70.26863999100004, 25.713643215000047], [70.09980594500007, 25.93824066800005], [70.17428386300003, 26.551333114000045], [69.51030040000006, 26.74353908300003], [69.58682895100003, 27.183251056000074], [70.37223289400004, 28.011824310000065], [70.58949778400006, 28.01046367200007], [70.87200318500004, 27.705547913000032], [71.89834746500003, 27.96123761700005], [72.39025312500007, 28.76971442000007], [72.94583110500008, 29.027797622000037], [73.39699, 29.945934], [73.97268913500005, 30.198253024000053], [73.93465655900008, 30.490159893000055], [74.69609569000005, 31.07395723600007], [74.51040744500006, 31.13196294200003], [74.65467123300004, 31.42590946300004], [74.48662495500008, 31.715053800000078], [74.60739286500007, 31.89007904500005], [75.37231677900007, 32.22577782700006], [75.10169467500003, 32.477465186000074], [74.68141605700004, 32.492754270000034], [74.70525128500003, 32.84195468900003], [74.37175134000006, 32.76958132800007], [73.634141, 33.093437], [73.594573, 33.891579], [73.39842630500004, 34.37826391800007], [73.453256, 34.569321], [73.656748, 34.562538], [73.727969, 34.764334], [74.045079, 34.890386500000034], [74.13194850000008, 35.11928750000004], [73.74990850000006, 35.220888], [73.78555682400008, 35.52448867700008], [73.40529850000007, 35.529256], [73.126046, 35.721168], [73.17833150000007, 35.860201], [72.56850036300006, 35.851801117000036], [72.549121, 36.232737], [72.96740791600007, 36.476936813000066], [73.06188028400004, 36.697367953000025], [73.86101455100004, 36.72470260000006], [73.66987, 36.922372], [74.040734, 36.834316], [74.689049, 37.095811], [74.902106, 36.940578], [75.145711, 37.034335], [75.417902, 36.959121], [75.460103, 36.729847], [75.735626, 36.753075], [76.02785159262507, 36.43963345932904], [76.71875858600009, 36.15991282200008], [76.83906132000016, 35.85951772100006], [77.3485909430002, 35.719784648000115], [77.51873419405028, 35.48565732389375]]], [[[93.84583282500006, 7.244555475000027], [93.96289062500006, 7.003333570000052], [93.84247589100005, 6.752916814000059], [93.66038513200004, 7.128305435000073], [93.84583282500006, 7.244555475000027]]], [[[93.64785766600005, 7.372444630000075], [93.77500152600004, 7.365416526000047], [93.66413879400005, 7.247889042000054], [93.64785766600005, 7.372444630000075]]], [[[93.37750244100005, 8.021249772000033], [93.45455932600004, 7.932472229000041], [93.45916748100007, 7.870333195000057], [93.31872558600008, 7.924110889000076], [93.37750244100005, 8.021249772000033]]], [[[93.51875305200008, 7.983277798000074], [93.59291839600007, 7.988305569000033], [93.58994293200004, 7.92616653400006], [93.51875305200008, 7.983277798000074]]], [[[93.57294464100005, 8.122528077000027], [93.61374664300007, 8.049972534000062], [93.60663604700005, 8.037917137000022], [93.57294464100005, 8.122528077000027]]], [[[93.53747558600008, 8.236222267000073], [93.56122589100005, 8.037471771000071], [93.51244354400006, 7.997889042000054], [93.46289062500006, 8.167471887000033], [93.53747558600008, 8.236222267000073]]], [[[93.24333190900006, 8.263750076000065], [93.24416351300005, 8.21791649000005], [93.22538757400008, 8.255833627000072], [93.24333190900006, 8.263750076000065]]], [[[73.07955932600004, 8.323361397000042], [73.04663848900003, 8.262916566000058], [73.01791381900006, 8.270805358000075], [73.07955932600004, 8.323361397000042]]], [[[93.13085937500006, 8.35455513100004], [93.13372039800004, 8.273333551000064], [93.20246887200005, 8.196222305000049], [93.09541320800008, 8.264944077000052], [93.13085937500006, 8.35455513100004]]], [[[93.08041381800007, 8.453305244000035], [93.06038665700004, 8.440833092000048], [93.06669616700003, 8.461222648000046], [93.08041381800007, 8.453305244000035]]], [[[93.61911010700004, 8.571249962000024], [93.64541626000005, 8.46166706200006], [93.62833404500003, 8.417083741000056], [93.61911010700004, 8.571249962000024]]], [[[92.72039032000004, 9.210833551000064], [92.83036041300005, 9.141694069000039], [92.73911285400004, 9.120444299000042], [92.72039032000004, 9.210833551000064]]], [[[72.28541565000006, 10.03577804500003], [72.27622222900004, 10.040805818000024], [72.28500366200007, 10.046222687000068], [72.28541565000006, 10.03577804500003]]], [[[73.65291595500008, 10.093305588000021], [73.64167022700008, 10.055388452000045], [73.65164184600008, 10.096249580000062], [73.65291595500008, 10.093305588000021]]], [[[73.66622161900005, 10.141666412000063], [73.65869140700005, 10.150805474000038], [73.66163635400005, 10.154555321000032], [73.66622161900005, 10.141666412000063]]], [[[72.60916900600006, 10.577917099000047], [72.58580780000005, 10.540389061000042], [72.58288574200003, 10.54163932800003], [72.60916900600006, 10.577917099000047]]], [[[72.52246856700003, 10.785388948000048], [72.53121948300003, 10.779999733000068], [72.52163696300005, 10.775388719000034], [72.52246856700003, 10.785388948000048]]], [[[73.65958404600008, 10.809166908000066], [73.69828033500005, 10.816222192000055], [73.70202636700003, 10.811638833000075], [73.65958404600008, 10.809166908000066]]], [[[72.17624664300007, 10.870805740000037], [72.19538879400005, 10.852444650000052], [72.17910766600005, 10.841250419000062], [72.17624664300007, 10.870805740000037]]], [[[92.54914093000008, 10.880389213000058], [92.57785797100007, 10.56830597000004], [92.38744354200009, 10.527055740000037], [92.38458252000004, 10.790805816000045], [92.54914093000008, 10.880389213000058]]], [[[72.29039001500007, 10.935805321000032], [72.28458404600008, 10.942472458000054], [72.29083251900005, 10.945388794000053], [72.29039001500007, 10.935805321000032]]], [[[72.73291778600003, 11.126638412000034], [72.71871948200004, 11.127499581000052], [72.73330688400006, 11.136221887000033], [72.73291778600003, 11.126638412000034]]], [[[72.81705474900008, 11.256667138000068], [72.79039001500007, 11.239138604000061], [72.81583404500003, 11.26458358800005], [72.81705474900008, 11.256667138000068]]], [[[92.71705627400007, 11.259139062000031], [92.70124816900005, 11.276638986000023], [92.71416473400006, 11.28625011400004], [92.71705627400007, 11.259139062000031]]], [[[92.73163604700005, 11.32874965800005], [92.71577453600008, 11.29874992300006], [92.70794677800006, 11.304139138000039], [92.73163604700005, 11.32874965800005]]], [[[72.99872589100005, 11.494138719000034], [73.01125335700004, 11.485027315000025], [73.01080322300004, 11.46791649000005], [72.99872589100005, 11.494138719000034]]], [[[92.62372589100005, 11.488333703000023], [92.69960784900007, 11.364972116000047], [92.61083221500007, 11.339528084000051], [92.62372589100005, 11.488333703000023]]], [[[92.55869293200004, 11.520805359000065], [92.57541656500007, 11.52083301500005], [92.57497406000005, 11.511249544000066], [92.55869293200004, 11.520805359000065]]], [[[92.60871887200005, 11.549139024000056], [92.62869262700008, 11.550833703000023], [92.61830902100007, 11.526222229000041], [92.60871887200005, 11.549139024000056]]], [[[92.60458374000007, 11.556638718000045], [92.59038543700007, 11.54330539800003], [92.59752655000005, 11.573749543000076], [92.60458374000007, 11.556638718000045]]], [[[92.60788726800007, 11.563305855000067], [92.62455749500003, 11.569138528000053], [92.62163543700007, 11.559556009000062], [92.60788726800007, 11.563305855000067]]], [[[92.22538757300003, 11.526666641000077], [92.28128051700008, 11.574972154000022], [92.27413940600007, 11.513750076000065], [92.22538757300003, 11.526666641000077]]], [[[92.53878021200006, 11.597499847000051], [92.57955932800007, 11.58333301500005], [92.53913879500004, 11.54955577800007], [92.53878021200006, 11.597499847000051]]], [[[72.19416809000006, 11.606249809000076], [72.18580627400007, 11.592916488000071], [72.18416595500008, 11.605416299000069], [72.19416809000006, 11.606249809000076]]], [[[72.70122528100006, 11.692444801000022], [72.68872070300006, 11.68247223000003], [72.69997406000005, 11.70208358800005], [72.70122528100006, 11.692444801000022]]], [[[93.05496978800005, 11.809556007000026], [93.07247161800007, 11.84291649000005], [93.08208465600006, 11.83333301500005], [93.05496978800005, 11.809556007000026]]], [[[92.75, 11.960416795000071], [92.77788543700007, 11.948305130000051], [92.74622345000006, 11.947472573000027], [92.75, 11.960416795000071]]], [[[92.93044281000005, 11.992500306000068], [93.01622009300007, 12.018305780000048], [93.04833221500007, 11.87955570400004], [92.93044281000005, 11.992500306000068]]], [[[92.96791839600007, 12.09405517700003], [93.00869750900006, 12.062472343000024], [92.99749755900007, 12.045305252000048], [92.96791839600007, 12.09405517700003]]], [[[92.96791839600007, 12.11824989300004], [93.00291442900004, 12.136666298000023], [92.99500274700006, 12.112000465000051], [92.96791839600007, 12.11824989300004]]], [[[93.01372528100006, 12.07999992300006], [93.05874633800005, 12.069138528000053], [93.05169677700007, 12.044555665000075], [93.01372528100006, 12.07999992300006]]], [[[93.04458618100006, 12.125805856000056], [93.10208129900008, 12.14411068000004], [93.08080291700009, 12.082055093000065], [93.04458618100006, 12.125805856000056]]], [[[92.94955444300007, 12.214944839000054], [92.93041992200006, 12.214083673000061], [92.94330596900005, 12.222861291000072], [92.94955444300007, 12.214944839000054]]], [[[92.70955657900004, 12.227416993000077], [92.71208190900006, 12.049083711000037], [92.79792022700008, 12.050749779000057], [92.74291992200006, 12.029916763000074], [92.72286224400005, 11.923333168000056], [92.80039215100004, 11.89663887100005], [92.71916961700003, 11.472888946000069], [92.52122497600004, 11.843305589000067], [92.57160949700005, 11.94038868000007], [92.61497497600004, 11.847055435000073], [92.70955657900004, 12.227416993000077]]], [[[92.73913574200003, 12.240333558000032], [92.77161407500006, 12.22202777800004], [92.77458191100004, 12.182416917000069], [92.73119354300007, 12.189944267000044], [92.73913574200003, 12.240333558000032]]], [[[92.88294220100005, 12.241582872000038], [92.92288971000005, 12.215749742000071], [92.88664245600006, 12.206138610000039], [92.88294220100005, 12.241582872000038]]], [[[93.08747100800008, 12.25874996300007], [93.11080932600004, 12.203722001000074], [93.06872558600008, 12.229166984000074], [93.08747100800008, 12.25874996300007]]], [[[93.84541320800008, 12.267499925000038], [93.87622070300006, 12.26333332200005], [93.85327911400003, 12.247027397000068], [93.84541320800008, 12.267499925000038]]], [[[92.71369171200007, 12.241611482000053], [92.73622131300004, 12.292471886000044], [92.72327423100006, 12.226972580000051], [92.71369171200007, 12.241611482000053]]], [[[92.91124725300006, 12.285750389000043], [92.93536377000004, 12.248250007000024], [92.93252563400006, 12.229527473000076], [92.91124725300006, 12.285750389000043]]], [[[92.82661438000008, 12.302861214000075], [92.88874816900005, 12.193222046000074], [92.77333068800004, 12.058666229000039], [92.78624725300006, 12.237444879000066], [92.74952697700007, 12.246582985000032], [92.82661438000008, 12.302861214000075]]], [[[92.85291290300006, 12.399944305000076], [92.90372467100008, 12.397417068000038], [92.89247131400003, 12.37030601500004], [92.85291290300006, 12.399944305000076]]], [[[92.93952941900005, 12.413222313000063], [92.94163513200004, 12.354472160000057], [92.92747497500005, 12.360333444000048], [92.93952941900005, 12.413222313000063]]], [[[92.70447540300006, 12.791610718000072], [92.72450256300004, 12.768250465000051], [92.73699951200007, 12.753277780000076], [92.73158264200003, 12.715360643000054], [92.70447540300006, 12.791610718000072]]], [[[92.72699737500005, 12.859944344000041], [92.73286438000008, 12.836583137000048], [92.72158050500008, 12.828722], [92.72699737500005, 12.859944344000041]]], [[[92.90738678000008, 12.92369461100003], [92.97872161900005, 12.488277435000043], [92.80991363500004, 12.457027435000043], [92.89702606200007, 12.320750236000038], [92.74661254900008, 12.296138763000044], [92.69369506800007, 12.612444879000066], [92.79161071700008, 12.632861139000056], [92.79616546600005, 12.700778009000032], [92.73030853400007, 12.822472572000038], [92.80327606200007, 12.887888910000072], [92.86907959000007, 12.875333787000045], [92.90366363500004, 12.894944192000025], [92.90738678000008, 12.92369461100003]]], [[[92.71074676500007, 12.986222268000063], [92.73449707000003, 12.889139177000061], [92.67747497600004, 12.77869415300006], [92.65789032000004, 12.857472421000068], [92.71074676500007, 12.986222268000063]]], [[[92.97241973800004, 12.986194612000077], [92.99116516100008, 12.927389146000053], [92.96160888700007, 12.934527397000068], [92.97241973800004, 12.986194612000077]]], [[[92.92866516100008, 12.999111176000042], [92.95038604700005, 13.020805360000054], [92.95075225800008, 12.993721962000052], [92.92866516100008, 12.999111176000042]]], [[[92.69791412300003, 13.085000039000022], [92.73458099400005, 13.090000152000073], [92.71669769300007, 13.061249734000057], [92.69791412300003, 13.085000039000022]]], [[[94.27703094500004, 13.426638604000061], [94.30538940500008, 13.43333339700007], [94.29080200200008, 13.41205596900005], [94.27703094500004, 13.426638604000061]]], [[[93.04872131500008, 13.54583358800005], [93.09627532900004, 13.327500343000054], [92.96289062600005, 13.342472078000071], [93.07291412300003, 13.263333320000072], [93.04125213600008, 13.05747223000003], [92.89666748000008, 13.088722229000041], [92.88708496100008, 13.040833473000077], [92.94702911400003, 12.966610908000064], [92.81158447300004, 12.896139145000063], [92.85208129900008, 13.399971962000052], [93.04872131500008, 13.54583358800005]]], [[[92.99041748000008, 13.650028230000032], [93.04374694800003, 13.629138946000069], [93.03997039800004, 13.622083665000048], [92.99041748000008, 13.650028230000032]]], [[[88.18528050600008, 21.593431896000027], [88.17642891100007, 21.572778174000064], [88.17776140900008, 21.599713673000053], [88.18528050600008, 21.593431896000027]]], [[[88.53205463000006, 21.581392677000053], [88.48166492600006, 21.55908299300006], [88.49166461500005, 21.596004875000062], [88.53205463000006, 21.581392677000053]]], [[[88.84019689000007, 21.564631186000042], [88.87489336200008, 21.59226906400005], [88.89954873500005, 21.565724771000077], [88.84019689000007, 21.564631186000042]]], [[[88.51116562300007, 21.60518804000003], [88.58988482300003, 21.601667404000068], [88.54468446400006, 21.568526809000048], [88.51116562300007, 21.60518804000003]]], [[[88.30706556300004, 21.613381633000074], [88.35331495300005, 21.651269206000052], [88.31748731600004, 21.60624242700004], [88.30706556300004, 21.613381633000074]]], [[[88.70975412000007, 21.591259765000075], [88.76881084200005, 21.654640588000063], [88.79101852500008, 21.584437188000038], [88.70975412000007, 21.591259765000075]]], [[[88.20500183100006, 21.723749161000057], [88.23291778600003, 21.64163970900006], [88.21333313000008, 21.595388412000034], [88.18041992200006, 21.68916702300004], [88.20500183100006, 21.723749161000057]]], [[[88.52837704000007, 21.658820235000064], [88.60267608400005, 21.684177128000044], [88.59648959200007, 21.619971374000045], [88.52837704000007, 21.658820235000064]]], [[[88.50492051300006, 21.772259820000045], [88.57133154100006, 21.735009414000046], [88.52272277500003, 21.719358063000072], [88.50492051300006, 21.772259820000045]]], [[[88.57707761200004, 21.816067161000035], [88.60593908200008, 21.834688810000046], [88.61766477100008, 21.82872728500007], [88.60706724000005, 21.81473267100006], [88.61285157700007, 21.798719513000037], [88.57707761200004, 21.816067161000035]]], [[[88.13664245600006, 21.875389099000074], [88.14871978700006, 21.634166719000063], [88.05166626000005, 21.640361787000074], [88.13664245600006, 21.875389099000074]]], [[[88.59507147000005, 21.85842309700007], [88.66740145300008, 21.91265089600006], [88.63674891200003, 21.786186503000067], [88.62007299600003, 21.796756608000067], [88.62093511800003, 21.830867631000046], [88.59507147000005, 21.85842309700007]]], [[[88.62938290800008, 21.959014341000056], [88.71510600600004, 22.000548758000036], [88.67926471600003, 21.944316822000076], [88.62938290800008, 21.959014341000056]]], [[[88.07023948200003, 21.92172391200006], [88.08023321800005, 22.009288077000065], [88.14330291700009, 22.027860641000075], [88.14366912800006, 22.021610260000045], [88.07023948200003, 21.92172391200006]]], [[[68.19291687000003, 23.774194719000036], [68.16438293200008, 23.76314867900004], [68.19483630100007, 23.787611221000077], [68.19291687000003, 23.774194719000036]]], [[[68.32463754300005, 23.940377297000055], [68.31540403900004, 23.93392000800003], [68.31497703800005, 23.936482013000045], [68.32463754300005, 23.940377297000055]]]]}}]}